[
  {
    "OBJECT_NAME": "STARLINK-33580",
    "OBJECT_ID": "25087Q",
    "EPOCH": "2025-11-11T06:21:37.233792",
    "MEAN_MOTION": 15.30223925,
    "ECCENTRICITY": 0.0001315,
    "INCLINATION": 53.1613,
    "RA_OF_ASC_NODE": 49.9568,
    "ARG_OF_PERICENTER": 80.3084,
    "MEAN_ANOMALY": 279.8065,
    "EPHEMERIS_TYPE": 0,
    "CLASSIFICATION_TYPE": "U",
    "NORAD_CAT_ID": 63711,
    "ELEMENT_SET_NO": 999,
    "REV_AT_EPOCH": 3106,
    "BSTAR": 0.0017442,
    "MEAN_MOTION_DOT": 0.00051699,
    "MEAN_MOTION_DDOT": 0.0,
    "TLE_LINE1": "1 63711U 25087Q   25315.26501428  .00051699  00000+0  17442-2 0  9993",
    "TLE_LINE2": "2 63711  53.1613  49.9568 0001315  80.3084 279.8065 15.30223925 31062",
    "COMMENT": "Grouped by shell and plane from TLE"
  },
  {
    "OBJECT_NAME": "STARLINK-33783",
    "OBJECT_ID": "25087R",
    "EPOCH": "2025-11-11T06:04:54.821856",
    "MEAN_MOTION": 15.30222314,
    "ECCENTRICITY": 0.0002036,
    "INCLINATION": 53.1595,
    "RA_OF_ASC_NODE": 49.885,
    "ARG_OF_PERICENTER": 72.5802,
    "MEAN_ANOMALY": 287.5422,
    "EPHEMERIS_TYPE": 0,
    "CLASSIFICATION_TYPE": "U",
    "NORAD_CAT_ID": 63712,
    "ELEMENT_SET_NO": 999,
    "REV_AT_EPOCH": 3106,
    "BSTAR": 0.0012814999999999999,
    "MEAN_MOTION_DOT": 0.00037816,
    "MEAN_MOTION_DDOT": 0.0,
    "TLE_LINE1": "1 63712U 25087R   25315.25341229  .00037816  00000+0  12815-2 0  9998",
    "TLE_LINE2": "2 63712  53.1595  49.8850 0002036  72.5802 287.5422 15.30222314 31061",
    "COMMENT": "Grouped by shell and plane from TLE"
  },
  {
    "OBJECT_NAME": "STARLINK-33773",
    "OBJECT_ID": "25087S",
    "EPOCH": "2025-11-11T06:48:48.537504",
    "MEAN_MOTION": 15.30226888,
    "ECCENTRICITY": 0.0001184,
    "INCLINATION": 53.1566,
    "RA_OF_ASC_NODE": 49.3605,
    "ARG_OF_PERICENTER": 68.7981,
    "MEAN_ANOMALY": 291.3146,
    "EPHEMERIS_TYPE": 0,
    "CLASSIFICATION_TYPE": "U",
    "NORAD_CAT_ID": 63713,
    "ELEMENT_SET_NO": 999,
    "REV_AT_EPOCH": 3107,
    "BSTAR": 0.0013938000000000002,
    "MEAN_MOTION_DOT": 0.00041185,
    "MEAN_MOTION_DDOT": 0.0,
    "TLE_LINE1": "1 63713U 25087S   25315.28389511  .00041185  00000+0  13938-2 0  9999",
    "TLE_LINE2": "2 63713  53.1566  49.3605 0001184  68.7981 291.3146 15.30226888 31078",
    "COMMENT": "Grouped by shell and plane from TLE"
  },
  {
    "OBJECT_NAME": "STARLINK-33745",
    "OBJECT_ID": "25087T",
    "EPOCH": "2025-11-11T06:44:14.859456",
    "MEAN_MOTION": 15.30247394,
    "ECCENTRICITY": 0.0001592,
    "INCLINATION": 53.1581,
    "RA_OF_ASC_NODE": 49.3408,
    "ARG_OF_PERICENTER": 86.2238,
    "MEAN_ANOMALY": 273.8944,
    "EPHEMERIS_TYPE": 0,
    "CLASSIFICATION_TYPE": "U",
    "NORAD_CAT_ID": 63714,
    "ELEMENT_SET_NO": 999,
    "REV_AT_EPOCH": 3107,
    "BSTAR": 0.0012991,
    "MEAN_MOTION_DOT": 0.00038374,
    "MEAN_MOTION_DDOT": 0.0,
    "TLE_LINE1": "1 63714U 25087T   25315.28072754  .00038374  00000+0  12991-2 0  9992",
    "TLE_LINE2": "2 63714  53.1581  49.3408 0001592  86.2238 273.8944 15.30247394 31076",
    "COMMENT": "Grouped by shell and plane from TLE"
  },
  {
    "OBJECT_NAME": "STARLINK-33728",
    "OBJECT_ID": "25087U",
    "EPOCH": "2025-11-11T06:54:53.716608",
    "MEAN_MOTION": 15.3021699,
    "ECCENTRICITY": 0.0001483,
    "INCLINATION": 53.1558,
    "RA_OF_ASC_NODE": 49.383,
    "ARG_OF_PERICENTER": 85.4803,
    "MEAN_ANOMALY": 274.6367,
    "EPHEMERIS_TYPE": 0,
    "CLASSIFICATION_TYPE": "U",
    "NORAD_CAT_ID": 63715,
    "ELEMENT_SET_NO": 999,
    "REV_AT_EPOCH": 3107,
    "BSTAR": 0.0012318,
    "MEAN_MOTION_DOT": 0.00036321,
    "MEAN_MOTION_DDOT": 0.0,
    "TLE_LINE1": "1 63715U 25087U   25315.28812172  .00036321  00000+0  12318-2 0  9992",
    "TLE_LINE2": "2 63715  53.1558  49.3830 0001483  85.4803 274.6367 15.30216990 31074",
    "COMMENT": "Grouped by shell and plane from TLE"
  },
  {
    "OBJECT_NAME": "STARLINK-33749",
    "OBJECT_ID": "25087V",
    "EPOCH": "2025-11-11T06:12:30.003840",
    "MEAN_MOTION": 15.30221458,
    "ECCENTRICITY": 0.0001305,
    "INCLINATION": 53.1596,
    "RA_OF_ASC_NODE": 49.9117,
    "ARG_OF_PERICENTER": 94.0767,
    "MEAN_ANOMALY": 266.0383,
    "EPHEMERIS_TYPE": 0,
    "CLASSIFICATION_TYPE": "U",
    "NORAD_CAT_ID": 63716,
    "ELEMENT_SET_NO": 999,
    "REV_AT_EPOCH": 3106,
    "BSTAR": 0.0011308,
    "MEAN_MOTION_DOT": 0.00033305,
    "MEAN_MOTION_DDOT": 0.0,
    "TLE_LINE1": "1 63716U 25087V   25315.25868060  .00033305  00000+0  11308-2 0  9994",
    "TLE_LINE2": "2 63716  53.1596  49.9117 0001305  94.0767 266.0383 15.30221458 31066",
    "COMMENT": "Grouped by shell and plane from TLE"
  },
  {
    "OBJECT_NAME": "STARLINK-33725",
    "OBJECT_ID": "25087W",
    "EPOCH": "2025-11-11T06:59:26.846016",
    "MEAN_MOTION": 15.30247937,
    "ECCENTRICITY": 7.2e-05,
    "INCLINATION": 53.159,
    "RA_OF_ASC_NODE": 49.4069,
    "ARG_OF_PERICENTER": 40.333,
    "MEAN_ANOMALY": 319.7725,
    "EPHEMERIS_TYPE": 0,
    "CLASSIFICATION_TYPE": "U",
    "NORAD_CAT_ID": 63717,
    "ELEMENT_SET_NO": 999,
    "REV_AT_EPOCH": 3107,
    "BSTAR": 0.0023472000000000002,
    "MEAN_MOTION_DOT": 0.00069919,
    "MEAN_MOTION_DDOT": 0.0,
    "TLE_LINE1": "1 63717U 25087W   25315.29128294  .00069919  00000+0  23472-2 0  9992",
    "TLE_LINE2": "2 63717  53.1590  49.4069 0000720  40.3330 319.7725 15.30247937 31079",
    "COMMENT": "Grouped by shell and plane from TLE"
  },
  {
    "OBJECT_NAME": "STARLINK-33641",
    "OBJECT_ID": "25087X",
    "EPOCH": "2025-11-11T07:22:16.135680",
    "MEAN_MOTION": 15.30222327,
    "ECCENTRICITY": 0.0001106,
    "INCLINATION": 53.1565,
    "RA_OF_ASC_NODE": 49.5027,
    "ARG_OF_PERICENTER": 113.9146,
    "MEAN_ANOMALY": 246.1971,
    "EPHEMERIS_TYPE": 0,
    "CLASSIFICATION_TYPE": "U",
    "NORAD_CAT_ID": 63718,
    "ELEMENT_SET_NO": 999,
    "REV_AT_EPOCH": 3107,
    "BSTAR": 0.0020325,
    "MEAN_MOTION_DOT": 0.0006037,
    "MEAN_MOTION_DDOT": 0.0,
    "TLE_LINE1": "1 63718U 25087X   25315.30713120  .00060370  00000+0  20325-2 0  9999",
    "TLE_LINE2": "2 63718  53.1565  49.5027 0001106 113.9146 246.1971 15.30222327 31070",
    "COMMENT": "Grouped by shell and plane from TLE"
  },
  {
    "OBJECT_NAME": "STARLINK-33727",
    "OBJECT_ID": "25087Y",
    "EPOCH": "2025-11-11T06:41:12.552864",
    "MEAN_MOTION": 15.30188764,
    "ECCENTRICITY": 0.000129,
    "INCLINATION": 53.1582,
    "RA_OF_ASC_NODE": 49.331,
    "ARG_OF_PERICENTER": 78.068,
    "MEAN_ANOMALY": 282.0465,
    "EPHEMERIS_TYPE": 0,
    "CLASSIFICATION_TYPE": "U",
    "NORAD_CAT_ID": 63719,
    "ELEMENT_SET_NO": 999,
    "REV_AT_EPOCH": 3107,
    "BSTAR": 0.0019811,
    "MEAN_MOTION_DOT": 0.0005876,
    "MEAN_MOTION_DDOT": 0.0,
    "TLE_LINE1": "1 63719U 25087Y   25315.27861751  .00058760  00000+0  19811-2 0  9998",
    "TLE_LINE2": "2 63719  53.1582  49.3310 0001290  78.0680 282.0465 15.30188764 31074",
    "COMMENT": "Grouped by shell and plane from TLE"
  },
  {
    "OBJECT_NAME": "STARLINK-33757",
    "OBJECT_ID": "25087Z",
    "EPOCH": "2025-11-11T07:14:38.518080",
    "MEAN_MOTION": 15.30228612,
    "ECCENTRICITY": 0.0001337,
    "INCLINATION": 53.1614,
    "RA_OF_ASC_NODE": 49.4729,
    "ARG_OF_PERICENTER": 82.7461,
    "MEAN_ANOMALY": 277.3692,
    "EPHEMERIS_TYPE": 0,
    "CLASSIFICATION_TYPE": "U",
    "NORAD_CAT_ID": 63720,
    "ELEMENT_SET_NO": 999,
    "REV_AT_EPOCH": 3107,
    "BSTAR": 0.0011344,
    "MEAN_MOTION_DOT": 0.00033419,
    "MEAN_MOTION_DDOT": 0.0,
    "TLE_LINE1": "1 63720U 25087Z   25315.30183470  .00033419  00000+0  11344-2 0  9996",
    "TLE_LINE2": "2 63720  53.1614  49.4729 0001337  82.7461 277.3692 15.30228612 31074",
    "COMMENT": "Grouped by shell and plane from TLE"
  },
  {
    "OBJECT_NAME": "STARLINK-33774",
    "OBJECT_ID": "25087AA",
    "EPOCH": "2025-11-11T07:35:54.959712",
    "MEAN_MOTION": 15.30223817,
    "ECCENTRICITY": 9.98e-05,
    "INCLINATION": 53.1644,
    "RA_OF_ASC_NODE": 49.5654,
    "ARG_OF_PERICENTER": 85.7361,
    "MEAN_ANOMALY": 274.3754,
    "EPHEMERIS_TYPE": 0,
    "CLASSIFICATION_TYPE": "U",
    "NORAD_CAT_ID": 63721,
    "ELEMENT_SET_NO": 999,
    "REV_AT_EPOCH": 3107,
    "BSTAR": 0.0012486,
    "MEAN_MOTION_DOT": 0.0003683,
    "MEAN_MOTION_DDOT": 0.0,
    "TLE_LINE1": "1 63721U 25087AA  25315.31660833  .00036830  00000+0  12486-2 0  9999",
    "TLE_LINE2": "2 63721  53.1644  49.5654 0000998  85.7361 274.3754 15.30223817 31078",
    "COMMENT": "Grouped by shell and plane from TLE"
  },
  {
    "OBJECT_NAME": "STARLINK-33767",
    "OBJECT_ID": "25087AB",
    "EPOCH": "2025-11-11T06:56:24.293184",
    "MEAN_MOTION": 15.3028049,
    "ECCENTRICITY": 0.000169,
    "INCLINATION": 53.1573,
    "RA_OF_ASC_NODE": 49.3901,
    "ARG_OF_PERICENTER": 332.75,
    "MEAN_ANOMALY": 27.3412,
    "EPHEMERIS_TYPE": 0,
    "CLASSIFICATION_TYPE": "U",
    "NORAD_CAT_ID": 63722,
    "ELEMENT_SET_NO": 999,
    "REV_AT_EPOCH": 3107,
    "BSTAR": 0.0025764,
    "MEAN_MOTION_DOT": 0.00076931,
    "MEAN_MOTION_DDOT": 0.0,
    "TLE_LINE1": "1 63722U 25087AB  25315.28917006  .00076931  00000+0  25764-2 0  9992",
    "TLE_LINE2": "2 63722  53.1573  49.3901 0001690 332.7500  27.3412 15.30280490 31070",
    "COMMENT": "Grouped by shell and plane from TLE"
  },
  {
    "OBJECT_NAME": "STARLINK-33806",
    "OBJECT_ID": "25087AC",
    "EPOCH": "2025-11-11T08:00:03.000384",
    "MEAN_MOTION": 15.30175816,
    "ECCENTRICITY": 0.0001282,
    "INCLINATION": 53.1579,
    "RA_OF_ASC_NODE": 49.2563,
    "ARG_OF_PERICENTER": 99.5155,
    "MEAN_ANOMALY": 109.2828,
    "EPHEMERIS_TYPE": 0,
    "CLASSIFICATION_TYPE": "U",
    "NORAD_CAT_ID": 63723,
    "ELEMENT_SET_NO": 999,
    "REV_AT_EPOCH": 588,
    "BSTAR": 0.00078998,
    "MEAN_MOTION_DOT": 0.00023093,
    "MEAN_MOTION_DDOT": 0.0,
    "TLE_LINE1": "1 63723U 25087AC  25315.33336806  .00023093  00000+0  78998-3 0  9991",
    "TLE_LINE2": "2 63723  53.1579  49.2563 0001282  99.5155 109.2828 15.30175816  5887",
    "COMMENT": "Grouped by shell and plane from TLE"
  }
]